{
    "links": {
        "self": "http://www.neowsapp.com/rest/v1/neo/54049893?api_key=iIulBulltgU6a56xZRHN4H3l9WmuAYTsLGpBGhQ2"
    },
    "id": "54049893",
    "neo_reference_id": "54049893",
    "name": "(2020 PF)",
    "designation": "2020 PF",
    "nasa_jpl_url": "http://ssd.jpl.nasa.gov/sbdb.cgi?sstr=54049893",
    "absolute_magnitude_h": 23.221,
    "estimated_diameter": {
        "kilometers": {
            "estimated_diameter_min": 0.0603052298,
            "estimated_diameter_max": 0.1348465932
        },
        "meters": {
            "estimated_diameter_min": 60.3052297828,
            "estimated_diameter_max": 134.8465931931
        },
        "miles": {
            "estimated_diameter_min": 0.0374719209,
            "estimated_diameter_max": 0.0837897625
        },
        "feet": {
            "estimated_diameter_min": 197.8518100807,
            "estimated_diameter_max": 442.4100968118
        }
    },
    "is_potentially_hazardous_asteroid": false,
    "close_approach_data": [
        {
            "close_approach_date": "1949-08-24",
            "close_approach_date_full": "1949-Aug-24 18:04",
            "epoch_date_close_approach": -642318960000,
            "relative_velocity": {
                "kilometers_per_second": "24.3060170565",
                "kilometers_per_hour": "87501.6614035282",
                "miles_per_hour": "54370.1295537645"
            },
            "miss_distance": {
                "astronomical": "0.4226679377",
                "lunar": "164.4178277653",
                "kilometers": "63230223.197212699",
                "miles": "39289438.8192612862"
            },
            "orbiting_body": "Earth"
        },
        {
            "close_approach_date": "1953-10-11",
            "close_approach_date_full": "1953-Oct-11 15:57",
            "epoch_date_close_approach": -511948980000,
            "relative_velocity": {
                "kilometers_per_second": "2.2324405815",
                "kilometers_per_hour": "8036.786093396",
                "miles_per_hour": "4993.7463367549"
            },
            "miss_distance": {
                "astronomical": "1.9634182318",
                "lunar": "763.7696921702",
                "kilometers": "293723185.396446266",
                "miles": "182511124.2520638308"
            },
            "orbiting_body": "Juptr"
        },
        {
            "close_approach_date": "2020-07-28",
            "close_approach_date_full": "2020-Jul-28 23:49",
            "epoch_date_close_approach": 1595980140000,
            "relative_velocity": {
                "kilometers_per_second": "12.4510296535",
                "kilometers_per_hour": "44823.7067525446",
                "miles_per_hour": "27851.7082318797"
            },
            "miss_distance": {
                "astronomical": "0.035285012",
                "lunar": "13.725869668",
                "kilometers": "5278562.63812444",
                "miles": "3279946.730179672"
            },
            "orbiting_body": "Earth"
        },
        {
            "close_approach_date": "2023-03-18",
            "close_approach_date_full": "2023-Mar-18 17:19",
            "epoch_date_close_approach": 1679159940000,
            "relative_velocity": {
                "kilometers_per_second": "26.6190240589",
                "kilometers_per_hour": "95828.4866122024",
                "miles_per_hour": "59544.0949174543"
            },
            "miss_distance": {
                "astronomical": "0.4978945137",
                "lunar": "193.6809658293",
                "kilometers": "74483958.734205819",
                "miles": "46282185.8239615422"
            },
            "orbiting_body": "Earth"
        },
        {
            "close_approach_date": "2024-08-17",
            "close_approach_date_full": "2024-Aug-17 05:33",
            "epoch_date_close_approach": 1723872780000,
            "relative_velocity": {
                "kilometers_per_second": "2.2187046985",
                "kilometers_per_hour": "7987.336914651",
                "miles_per_hour": "4963.0205401064"
            },
            "miss_distance": {
                "astronomical": "1.9667918424",
                "lunar": "765.0820266936",
                "kilometers": "294227870.356415688",
                "miles": "182824720.9445169744"
            },
            "orbiting_body": "Juptr"
        }
    ],
    "orbital_data": {
        "orbit_id": "12",
        "orbit_determination_date": "2020-10-26 09:35:25",
        "first_observation_date": "2020-07-28",
        "last_observation_date": "2020-09-06",
        "data_arc_in_days": 40,
        "observations_used": 147,
        "orbit_uncertainty": "7",
        "minimum_orbit_intersection": ".0258062",
        "jupiter_tisserand_invariant": "3.630",
        "epoch_osculation": "2459000.5",
        "eccentricity": ".553177943807925",
        "semi_major_axis": "2.00373269638651",
        "inclination": "2.102522741161776",
        "ascending_node_longitude": "254.383174402869",
        "orbital_period": "1035.996061296332",
        "perihelion_distance": ".8953119634587112",
        "perihelion_argument": "1.402741436155544",
        "aphelion_distance": "3.112153429314309",
        "perihelion_time": "2459022.333665632694",
        "mean_anomaly": "352.4129830977016",
        "mean_motion": ".34749166859721",
        "equinox": "J2000",
        "orbit_class": {
            "orbit_class_type": "APO",
            "orbit_class_description": "Near-Earth asteroid orbits which cross the Earth’s orbit similar to that of 1862 Apollo",
            "orbit_class_range": "a (semi-major axis) > 1.0 AU; q (perihelion) < 1.017 AU"
        }
    },
    "is_sentry_object": false
}